{
  "type": "FeatureCollection",
  "features": [
    {
      "type": "Feature",
      "properties": {
        "norad_id": 29268,
        "name": "ARIRANG-2 (KOMPSAT-2)",
        "group": "resource",
        "lat": 57.434887701543154,
        "lon": 172.04412461269123,
        "alt_km": 680.5312611266809,
        "timestamp": "2025-12-22T11:33:20.085913+00:00",
        "meta_object_name": "ARIRANG-2 (KOMPSAT-2)",
        "meta_object_id": "2006-031A",
        "meta_epoch": "2025-12-22T05:08:13.665120",
        "meta_mean_motion": 14.64500928,
        "meta_eccentricity": 0.0013161,
        "meta_inclination": 97.8253,
        "meta_ra_of_asc_node": 184.2247,
        "meta_arg_of_pericenter": 276.6567,
        "meta_mean_anomaly": 172.4727,
        "meta_ephemeris_type": 0,
        "meta_classification_type": "U",
        "meta_norad_cat_id": 29268,
        "meta_element_set_no": 999,
        "meta_rev_at_epoch": 3557,
        "meta_bstar": 4.8688e-05,
        "meta_mean_motion_dot": 2.13e-06,
        "meta_mean_motion_ddot": 0,
        "tle_line1": "1 29268U 06031A   25356.21404705  .00000213  00000+0  48688-4 0  9994",
        "tle_line2": "2 29268  97.8253 184.2247 0013161 276.6567 172.4727 14.64500928 35571"
      },
      "geometry": {
        "type": "Point",
        "coordinates": [
          172.04412461269123,
          57.434887701543154
        ]
      }
    },
    {
      "type": "Feature",
      "properties": {
        "norad_id": 29709,
        "name": "LAPAN-TUBSAT",
        "group": "resource",
        "lat": 14.483872639897525,
        "lon": -15.2768191406367,
        "alt_km": 604.3467279895694,
        "timestamp": "2025-12-22T11:33:20.085924+00:00",
        "meta_object_name": "LAPAN-TUBSAT",
        "meta_object_id": "2007-001A",
        "meta_epoch": "2025-12-22T05:01:28.030944",
        "meta_mean_motion": 14.85685603,
        "meta_eccentricity": 0.0013362,
        "meta_inclination": 98.1255,
        "meta_ra_of_asc_node": 346.5605,
        "meta_arg_of_pericenter": 46.2746,
        "meta_mean_anomaly": 313.9572,
        "meta_ephemeris_type": 0,
        "meta_classification_type": "U",
        "meta_norad_cat_id": 29709,
        "meta_element_set_no": 999,
        "meta_rev_at_epoch": 2487,
        "meta_bstar": 0.00014056,
        "meta_mean_motion_dot": 1.163e-05,
        "meta_mean_motion_ddot": 0,
        "tle_line1": "1 29709U 07001A   25356.20935221  .00001163  00000+0  14056-3 0  9999",
        "tle_line2": "2 29709  98.1255 346.5605 0013362  46.2746 313.9572 14.85685603 24879"
      },
      "geometry": {
        "type": "Point",
        "coordinates": [
          -15.2768191406367,
          14.483872639897525
        ]
      }
    },
    {
      "type": "Feature",
      "properties": {
        "norad_id": 31113,
        "name": "HAIYANG-1B",
        "group": "resource",
        "lat": 35.24526387277903,
        "lon": 166.30147857928765,
        "alt_km": 792.9632091346912,
        "timestamp": "2025-12-22T11:33:20.085935+00:00",
        "meta_object_name": "HAIYANG-1B",
        "meta_object_id": "2007-010A",
        "meta_epoch": "2025-12-21T21:27:33.332256",
        "meta_mean_motion": 14.30967998,
        "meta_eccentricity": 0.0013781,
        "meta_inclination": 98.3324,
        "meta_ra_of_asc_node": 339.7943,
        "meta_arg_of_pericenter": 11.8989,
        "meta_mean_anomaly": 348.2518,
        "meta_ephemeris_type": 0,
        "meta_classification_type": "U",
        "meta_norad_cat_id": 31113,
        "meta_element_set_no": 999,
        "meta_rev_at_epoch": 97527,
        "meta_bstar": 5.1433e-05,
        "meta_mean_motion_dot": 9.4e-07,
        "meta_mean_motion_ddot": 0,
        "tle_line1": "1 31113U 07010A   25355.89413579  .00000094  00000+0  51433-4 0  9995",
        "tle_line2": "2 31113  98.3324 339.7943 0013781  11.8989 348.2518 14.30967998975271"
      },
      "geometry": {
        "type": "Point",
        "coordinates": [
          166.30147857928765,
          35.24526387277903
        ]
      }
    },
    {
      "type": "Feature",
      "properties": {
        "norad_id": 31598,
        "name": "COSMO-SKYMED 1",
        "group": "resource",
        "lat": -34.50780639677571,
        "lon": -172.58864166643812,
        "alt_km": 586.4829614253786,
        "timestamp": "2025-12-22T11:33:20.085945+00:00",
        "meta_object_name": "COSMO-SKYMED 1",
        "meta_object_id": "2007-023A",
        "meta_epoch": "2025-12-22T03:41:02.398272",
        "meta_mean_motion": 14.9583495,
        "meta_eccentricity": 0.0001498,
        "meta_inclination": 97.8839,
        "meta_ra_of_asc_node": 181.6148,
        "meta_arg_of_pericenter": 81.1981,
        "meta_mean_anomaly": 278.941,
        "meta_ephemeris_type": 0,
        "meta_classification_type": "U",
        "meta_norad_cat_id": 31598,
        "meta_element_set_no": 999,
        "meta_rev_at_epoch": 331,
        "meta_bstar": 0.00030947,
        "meta_mean_motion_dot": 3.397e-05,
        "meta_mean_motion_ddot": 0,
        "tle_line1": "1 31598U 07023A   25356.15349998  .00003397  00000+0  30947-3 0  9994",
        "tle_line2": "2 31598  97.8839 181.6148 0001498  81.1981 278.9410 14.95834950  3317"
      },
      "geometry": {
        "type": "Point",
        "coordinates": [
          -172.58864166643812,
          -34.50780639677571
        ]
      }
    },
    {
      "type": "Feature",
      "properties": {
        "norad_id": 31698,
        "name": "TERRASAR-X",
        "group": "resource",
        "lat": 76.22566363831356,
        "lon": -30.51837327850277,
        "alt_km": 499.90504800557574,
        "timestamp": "2025-12-22T11:33:20.085955+00:00",
        "meta_object_name": "TERRASAR-X",
        "meta_object_id": "2007-026A",
        "meta_epoch": "2025-12-21T13:04:48.918432",
        "meta_mean_motion": 15.19155537,
        "meta_eccentricity": 0.0001908,
        "meta_inclination": 97.4453,
        "meta_ra_of_asc_node": 0.797,
        "meta_arg_of_pericenter": 92.2081,
        "meta_mean_anomaly": 267.9372,
        "meta_ephemeris_type": 0,
        "meta_classification_type": "U",
        "meta_norad_cat_id": 31698,
        "meta_element_set_no": 999,
        "meta_rev_at_epoch": 2625,
        "meta_bstar": 3.2984e-05,
        "meta_mean_motion_dot": 6.26e-06,
        "meta_mean_motion_ddot": 0,
        "tle_line1": "1 31698U 07026A   25355.54501063  .00000626  00000+0  32984-4 0  9999",
        "tle_line2": "2 31698  97.4453   0.7970 0001908  92.2081 267.9372 15.19155537 26257"
      },
      "geometry": {
        "type": "Point",
        "coordinates": [
          -30.51837327850277,
          76.22566363831356
        ]
      }
    },
    {
      "type": "Feature",
      "properties": {
        "norad_id": 32060,
        "name": "WORLDVIEW-1 (WV-1)",
        "group": "resource",
        "lat": -82.08772407494202,
        "lon": -135.07911110048164,
        "alt_km": 501.7258980571205,
        "timestamp": "2025-12-22T11:33:20.085966+00:00",
        "meta_object_name": "WORLDVIEW-1 (WV-1)",
        "meta_object_id": "2007-041A",
        "meta_epoch": "2025-12-21T21:46:45.108192",
        "meta_mean_motion": 15.23900094,
        "meta_eccentricity": 0.0003402,
        "meta_inclination": 97.3828,
        "meta_ra_of_asc_node": 113.257,
        "meta_arg_of_pericenter": 6.3432,
        "meta_mean_anomaly": 353.7848,
        "meta_ephemeris_type": 0,
        "meta_classification_type": "U",
        "meta_norad_cat_id": 32060,
        "meta_element_set_no": 999,
        "meta_rev_at_epoch": 1587,
        "meta_bstar": 0.0003111,
        "meta_mean_motion_dot": 7.445e-05,
        "meta_mean_motion_ddot": 0,
        "tle_line1": "1 32060U 07041A   25355.90746653  .00007445  00000+0  31110-3 0  9991",
        "tle_line2": "2 32060  97.3828 113.2570 0003402   6.3432 353.7848 15.23900094 15878"
      },
      "geometry": {
        "type": "Point",
        "coordinates": [
          -135.07911110048164,
          -82.08772407494202
        ]
      }
    },
    {
      "type": "Feature",
      "properties": {
        "norad_id": 32289,
        "name": "YAOGAN-3",
        "group": "resource",
        "lat": -32.55164732651479,
        "lon": 28.061079702126307,
        "alt_km": 604.6386046111029,
        "timestamp": "2025-12-22T11:33:20.085977+00:00",
        "meta_object_name": "YAOGAN-3",
        "meta_object_id": "2007-055A",
        "meta_epoch": "2025-12-22T05:15:20.051712",
        "meta_mean_motion": 14.89896985,
        "meta_eccentricity": 0.0001077,
        "meta_inclination": 97.8351,
        "meta_ra_of_asc_node": 22.7582,
        "meta_arg_of_pericenter": 76.1391,
        "meta_mean_anomaly": 283.9946,
        "meta_ephemeris_type": 0,
        "meta_classification_type": "U",
        "meta_norad_cat_id": 32289,
        "meta_element_set_no": 999,
        "meta_rev_at_epoch": 97950,
        "meta_bstar": 0.00017181,
        "meta_mean_motion_dot": 1.597e-05,
        "meta_mean_motion_ddot": 0,
        "tle_line1": "1 32289U 07055A   25356.21898208  .00001597  00000+0  17181-3 0  9992",
        "tle_line2": "2 32289  97.8351  22.7582 0001077  76.1391 283.9946 14.89896985979505"
      },
      "geometry": {
        "type": "Point",
        "coordinates": [
          28.061079702126307,
          -32.55164732651479
        ]
      }
    }
  ]
}